GLOBALSTAR M035 [-]     
1 25851U 99037A   23312.34776262 -.00000096  00000+0 -12183-2 0  9990
2 25851  51.9951 283.6537 0013747 108.5707  41.2400 11.04527267 31412
GLOBALSTAR M032 [-]     
1 25852U 99037B   23312.83056036 -.00000043  00000+0  75852-3 0  9999
2 25852  51.9914 148.2336 0007048 258.7551 101.2456 11.19045401 69147
GLOBALSTAR M051 [-]     
1 25853U 99037C   23313.32960687 -.00000077  00000+0 -12495-3 0  9993
2 25853  51.9831  14.1839 0001457 236.1425 123.9247 11.42192631 65467
GLOBALSTAR M030 [-]     
1 25854U 99037D   23312.89351955 -.00000128  00000+0 -11246-2 0  9996
2 25854  51.9870 218.6170 0005359  70.0247 290.1146 11.55086710 82392
GLOBALSTAR M048 [-]     
1 25872U 99041A   23312.71743228 -.00000055  00000+0  40023-3 0  9994
2 25872  51.9372 288.0145 0012922 250.8624 280.0314 11.33840969 58458
GLOBALSTAR M026 [-]     
1 25873U 99041B   23312.96819723 -.00000127  00000+0 -23108-2 0  9991
2 25873  52.0034  46.4081 0001300  29.8083 142.2394 11.06828469 83571
GLOBALSTAR M043 [-]     
1 25874U 99041C   23313.47924844 -.00000057  00000+0  34022-3 0  9999
2 25874  51.9435  10.5074 0013302  34.6374  67.6592 11.25675574 56940
GLOBALSTAR M028 [-]     
1 25875U 99041D   23312.97995501 -.00000045  00000+0  35261-3 0  9995
2 25875  51.9601 140.9702 0062619 237.9798 121.4968 12.50544141116863
